{
  "norad_id": 64529,
  "name": "GHGSAT-C12",
  "history": [
    {
      "epoch": "2026-03-28T20:50:58.497504",
      "apogee_km": 511.195651413972,
      "perigee_km": 502.15190167411856,
      "latitude_deg": 21.24946957696485,
      "longitude_deg": -3.701669440139085,
      "semi_major_axis_km": 6884.8107765440445,
      "eccentricity": 0.00065679,
      "inclination_deg": 97.4638,
      "raan_deg": 203.4664,
      "arg_perigee_deg": 95.1495,
      "mean_anomaly_deg": 265.049,
      "mean_motion_rev_day": 15.19724095
    },
    {
      "epoch": "2026-03-29T03:10:13.941120",
      "apogee_km": 511.1805651923587,
      "perigee_km": 502.1394497621395,
      "latitude_deg": -82.4463078473586,
      "longitude_deg": 21.58215679973364,
      "semi_major_axis_km": 6884.797007477249,
      "eccentricity": 0.0006566,
      "inclination_deg": 97.4638,
      "raan_deg": 203.7268,
      "arg_perigee_deg": 94.429,
      "mean_anomaly_deg": 265.7695,
      "mean_motion_rev_day": 15.19728654
    }
  ]
}